[{"OBJECT_NAME":"STARLINK-35206","OBJECT_ID":"2025-207Y","EPOCH":"2026-03-09T17:12:42.951456","MEAN_MOTION":15.0567138,"ECCENTRICITY":0.00010486,"INCLINATION":97.6033,"RA_OF_ASC_NODE":138.661,"ARG_OF_PERICENTER":79.172,"MEAN_ANOMALY":280.9625,"EPHEMERIS_TYPE":0,"CLASSIFICATION_TYPE":"U","NORAD_CAT_ID":65614,"ELEMENT_SET_NO":999,"REV_AT_EPOCH":2815,"BSTAR":0.00065223919,"MEAN_MOTION_DOT":9.368e-5,"MEAN_MOTION_DDOT":0},{"OBJECT_NAME":"IRIDIUM 33 DEB","OBJECT_ID":"1997-051ABJ","EPOCH":"2026-03-07T11:02:11.153184","MEAN_MOTION":15.04355632,"ECCENTRICITY":0.00105712,"INCLINATION":86.348,"RA_OF_ASC_NODE":321.5871,"ARG_OF_PERICENTER":86.7515,"MEAN_ANOMALY":38.318,"EPHEMERIS_TYPE":0,"CLASSIFICATION_TYPE":"U","NORAD_CAT_ID":40996,"ELEMENT_SET_NO":999,"REV_AT_EPOCH":63758,"BSTAR":0.0045408492,"MEAN_MOTION_DOT":0.00063892,"MEAN_MOTION_DDOT":0}]
